GORIZONT 1 [-]          
1 11158U 78118A   17065.10019715 -.00000057  00000-0  00000-0 0  9997
2 11158  15.9096 269.7741 3465694 187.0027 166.3374  1.00302324 88940
GORIZONT 2 [-]          
1 11440U 79062A   17061.65535677 -.00000229  00000-0  00000+0 0  9996
2 11440  13.0200 324.8697 0005448 273.6470 245.4678  1.00292800103975
GORIZONT 3 [-]          
1 11648U 79105A   17060.81153983  .00000004  00000-0  00000-0 0  9998
2 11648  13.1232 326.0537 0011294 176.1428  13.8956  1.00201052 88443
GORIZONT 4 [-]          
1 11841U 80049A   17065.52239786 -.00000047  00000-0  00000+0 0  9998
2 11841  14.1009 330.4099 0005527 285.4720 313.2672  0.98628918200116
GORIZONT 5 [-]          
1 13092U 82020A   17065.60125571 -.00000013  00000-0  00000-0 0  9998
2 13092  14.8296 335.1882 0032039 164.6204 134.6382  0.98530151 88192
GORIZONT 6 [-]          
1 13624U 82103A   17065.05940656 -.00000256  00000-0  00000+0 0  9997
2 13624  13.6905 335.0720 0003048 252.4520 286.2651  1.00259423 86940
GORIZONT 7 [-]          
1 14160U 83066A   17065.78838637 -.00000055  00000-0  00000-0 0  9995
2 14160  14.8960 342.7913 0014817 265.0938 293.3679  0.98346296121410
GORIZONT 8 [-]          
1 14532U 83118A   17064.45213206 -.00000180  00000-0  00000+0 0  9996
2 14532  14.9574 344.3834 0023542  98.8478  71.4442  0.98270908 87219
GORIZONT 9 [-]          
1 14940U 84041A   17061.10319169  .00000030  00000-0  00000-0 0  9993
2 14940  14.2025 343.0785 0006279 217.4946  54.4394  1.00303599 87904
GORIZONT 10 [-]         
1 15144U 84078A   17065.42636855 -.00000307  00000-0  00000-0 0  9991
2 15144  14.2293 344.0128 0005195 270.1110  16.7485  1.00324408120581
GORIZONT 11 [-]         
1 15484U 85007A   17066.13279589 -.00000254  00000-0  00000+0 0  9997
2 15484  14.2762 345.7675 0002319 260.6669 296.6712  1.00235562118640
GORIZONT 12 [-]         
1 16769U 86044A   17065.88402083 -.00000363  00000-0  00000+0 0  9995
2 16769  14.5381 350.6362 0005715 252.0122 345.0543  1.00310183113286
GORIZONT 13 [-]         
1 17083U 86090A   17065.34422293 -.00000126  00000-0  00000-0 0  9990
2 17083  15.9844 356.5535 0019125 280.4725 303.2009  0.96725545 85856
GORIZONT 14 [-]         
1 17969U 87040A   17065.65327900 -.00000191  00000-0  00000+0 0  9993
2 17969  15.5421 348.9225 0026589 128.3356  62.7921  0.97659550 86752
GORIZONT 15 [-]         
1 19017U 88028A   17065.89208921 -.00000176  00000-0  00000-0 0  9997
2 19017  15.9948 359.9066 0031653 108.4104 147.5551  0.97829022 86348
GORIZONT 16 [-]         
1 19397U 88071A   17065.46226804 -.00000066  00000-0  00000-0 0  9997
2 19397  14.9055 358.8550 0013925 341.9549 241.9034  0.99965480104349
GORIZONT 17 [-]         
1 19765U 89004A   17065.51489331 -.00000093  00000-0  00000-0 0  9995
2 19765  15.2103   1.7626 0016770  79.3011 104.9641  0.99067409101995
GORIZONT 18 [-]         
1 20107U 89052A   17065.12928765 -.00000289  00000-0  00000-0 0  9993
2 20107  15.1396   3.1157 0039550 262.8571 276.1339  0.99403767100712
GORIZONT 19 [-]         
1 20263U 89081A   17065.93738495  .00000097  00000-0  00000-0 0  9992
2 20263  14.9102   2.5806 0006680 238.1513 305.0103  1.00224818 13356
GORIZONT 20 [-]         
1 20659U 90054A   17065.97683911  .00000051  00000-0  00000+0 0  9998
2 20659  15.1082   5.5186 0005791 173.6037  30.8003  1.00261672 97707
GORIZONT 21 [-]         
1 20923U 90094A   17065.82985310 -.00000262  00000-0  00000-0 0  9994
2 20923  15.0534   6.3101 0006623 209.8340  34.0082  1.00282462 96467
GORIZONT 22 [-]         
1 20953U 90102A   17066.11818448 -.00000040  00000-0  00000+0 0  9990
2 20953  14.9861   6.5973 0006786 265.9403 295.8369  1.00275292 96416
GORIZONT 23 [-]         
1 21533U 91046A   17064.91506347  .00000008  00000-0  00000-0 0  9995
2 21533  15.4214  10.2983 0009597 253.5399 305.9756  0.98905473 13152
GORIZONT 24 [-]         
1 21759U 91074A   17066.35831986 -.00000030  00000-0  00000+0 0  9991
2 21759  15.4243  11.8948 0020472 187.6904 352.1457  0.98441533 91673
GORIZONT 25 [-]         
1 21922U 92017A   17065.65450425 -.00000131  00000-0  00000+0 0  9990
2 21922  14.9981  11.6800 0023915  17.8656 182.4946  0.99859483 91086
GORIZONT 26 [-]         
1 22041U 92043A   17065.85951115 -.00000029  00000-0  00000+0 0  9992
2 22041  15.0118  13.3159 0033350 189.8339 354.2513  0.99239491 89853
GORIZONT 27 [-]         
1 22245U 92082A   17065.12953160 -.00000194  00000-0  00000+0 0  9996
2 22245  14.9363  13.4992 0015377 292.1468 246.0582  1.00211787 93181
GORIZONT 28 [-]         
1 22880U 93069A   17065.06038993 -.00000095  00000-0  00000-0 0  9999
2 22880  14.7593  16.8821 0028523  81.6835  94.7209  0.99656781 85340
GORIZONT 29 [-]         
1 22907U 93072A   17065.45138491  .00000036  00000-0  00000-0 0  9994
2 22907  14.7061  16.6047 0014752 273.4286 266.5693  1.00121477 85234
GORIZONT 30 [-]         
1 23108U 94030A   17066.52361201  .00000084  00000-0  00000+0 0  9991
2 23108  14.6341  17.5972 0005565 229.6777 317.7934  1.00189390 83508
GORIZONT 31 [-]         
1 23775U 96005A   17063.76260457 -.00000347  00000-0  00000-0 0  9993
2 23775  14.0305  23.1619 0020568 162.3630   5.2790  0.99889423 77170
GORIZONT 32 [-]         
1 23880U 96034A   17064.63634738 -.00000137  00000-0  00000-0 0  9993
2 23880  13.9321  23.8075 0012132 270.7018 260.3274  1.00222724 76086
GORIZONT 33 [-]         
1 26372U 00029A   17066.56675975 -.00000386  00000-0  00000+0 0  9998
2 26372  11.7647  33.2435 0002535 243.8542 218.5523  1.00205655 61435
